{"type":"Feature","geometry":{"type":"Polygon","coordinates":[[[-122.8493733,49.1880261],[-122.8493807,49.1880686],[-122.8493755,49.1881024],[-122.8494101,49.1881146],[-122.8493755,49.1881642],[-122.8494464,49.188148],[-122.8494935,49.1881347],[-122.84959,49.1881],[-122.8496807,49.1880512],[-122.8497752,49.1879682],[-122.8498644,49.1878799],[-122.8499454,49.1877634],[-122.8499724,49.1877016],[-122.8499778,49.1875886],[-122.8499508,49.1875303],[-122.849886,49.1874915],[-122.849805,49.1874897],[-122.8497266,49.187518],[-122.8496267,49.1875603],[-122.8495591,49.1876186],[-122.8494519,49.1877254],[-122.8493733,49.1880261]]]},"properties":{"name":"Central City Office Tower","source":"https://www.openstreetmap.org/way/450312789","attribution":"\u00a9 OpenStreetMap contributors","licence":"https://opendatacommons.org/licenses/odbl/1-0/"}}